GLOBALSTAR M068 [-]     
1 32266U 07048D   23238.25785060 -.00000085  00000+0  10282-3 0  9998
2 32266  51.9881 156.8836 0001069  91.7710  44.7534 12.62764910734055
GLOBALSTAR M079 [+]     
1 37188U 10054A   23238.46894507 -.00000099  00000+0  26291-4 0  9990
2 37188  52.0069 351.1207 0000560  98.6796 337.3818 12.62267029593014
GLOBALSTAR M074 [+]     
1 37189U 10054B   23238.50191987 -.00000097  00000+0  39937-4 0  9997
2 37189  52.0042 350.4453 0000735 100.7154   5.2231 12.62269004593620
GLOBALSTAR M076 [+]     
1 37190U 10054C   23238.52240302 -.00000100  00000+0  23624-4 0  9998
2 37190  52.0052 350.4913 0000674  51.5207  28.9776 12.62260287593347
GLOBALSTAR M077 [+]     
1 37191U 10054D   23238.51461521 -.00000074  00000+0  16451-3 0  9995
2 37191  52.0081 307.1856 0000548 105.4570 358.1644 12.62270392593718
GLOBALSTAR M075 [+]     
1 37192U 10054E   23238.44756616 -.00000097  00000+0  37862-4 0  9995
2 37192  51.9962  33.3427 0000573  87.0593 312.4382 12.62260475592560
GLOBALSTAR M073 [+]     
1 37193U 10054F   23238.54871562 -.00000071  00000+0  18015-3 0  9995
2 37193  52.0068 306.3552 0000497 112.1710  26.7311 12.62266788594403
GLOBALSTAR M083 [+]     
1 37739U 11033A   23238.39658019 -.00000102  00000+0  86715-5 0  9991
2 37739  51.9840 256.4499 0000386 150.4058 317.7624 12.62268733563405
GLOBALSTAR M088 [+]     
1 37740U 11033B   23238.30643899 -.00000111  00000+0 -37783-4 0  9995
2 37740  51.9728 162.7709 0000183  35.7758 142.3176 12.62264875558931
GLOBALSTAR M091 [+]     
1 37741U 11033C   23238.07409591 -.00000104  00000+0 -16832-5 0  9994
2 37741  51.9990 125.8520 0000301  60.1833  81.0171 12.62265797559694
GLOBALSTAR M085 [+]     
1 37742U 11033D   23238.50857211 -.00000104  00000+0 -78468-7 0  9994
2 37742  51.9864  76.1506 0000570  84.1438 293.2021 12.62266525560268
GLOBALSTAR M081 [+]     
1 37743U 11033E   23238.30471885 -.00000099  00000+0  25466-4 0  9991
2 37743  51.9953  79.1515 0000497  59.5164 350.4888 12.62270425560385
GLOBALSTAR M089 [+]     
1 37744U 11033F   23238.41664786 -.00000104  00000+0 -98287-7 0  9990
2 37744  51.9944  33.1621 0000873  73.2877 305.4221 12.62266278561244
GLOBALSTAR M084 [+]     
1 38040U 11080A   23238.36920299 -.00000070  00000+0  19015-3 0  9999
2 38040  51.9988 260.2485 0000430  73.4594  29.0138 12.62265129539212
GLOBALSTAR M080 [+]     
1 38041U 11080B   23238.51250793 -.00000067  00000+0  20736-3 0  9990
2 38041  52.0039 261.1858 0000420  45.8466 108.7148 12.62263905539357
GLOBALSTAR M082 [+]     
1 38042U 11080C   23238.44343098 -.00000091  00000+0  73428-4 0  9998
2 38042  52.0052 216.7706 0000566 162.6150 337.6753 12.62270227540059
GLOBALSTAR M092 [+]     
1 38043U 11080D   23238.57558628 -.00000080  00000+0  13518-3 0  9991
2 38043  52.0090 306.7123 0000773  91.2868  49.9913 12.62271803538529
GLOBALSTAR M090 [+]     
1 38044U 11080E   23238.39489705 -.00000087  00000+0  91929-4 0  9991
2 38044  51.9863 211.5786 0000107 129.6584  30.0218 12.62267163540162
GLOBALSTAR M086 [+]     
1 38045U 11080F   23238.34313580 -.00000085  00000+0  10573-3 0  9997
2 38045  51.9875 212.2348 0000926 309.2290 215.8692 12.62269727540108
GLOBALSTAR M097 [+]     
1 39072U 13005A   23238.41277142 -.00000112  00000+0 -45165-4 0  9996
2 39072  52.0040 125.9009 0000293  67.8296 292.2602 12.62270228487365
GLOBALSTAR M093 [+]     
1 39073U 13005B   23238.62368120 -.00000100  00000+0  19442-4 0  9992
2 39073  51.9803 119.6182 0000142  32.8495 327.2380 12.62266219487344
GLOBALSTAR M094 [+]     
1 39074U 13005C   23238.54455442 -.00000105  00000+0 -61523-5 0  9992
2 39074  51.9975  33.5792 0000585  93.6003 266.4930 12.62267003488941
GLOBALSTAR M096 [+]     
1 39075U 13005D   23238.55760225 -.00000103  00000+0  23143-5 0  9995
2 39075  52.0066  81.5373 0000427  73.6901 286.4013 12.62268095487869
GLOBALSTAR M078 [+]     
1 39076U 13005E   23238.21423352 -.00000081  00000+0  12927-3 0  9997
2 39076  51.9866 167.9902 0000999 133.7814 226.3135 12.62269927486444
GLOBALSTAR M095 [+]     
1 39077U 13005F   23238.16195284 -.00000103  00000+0  38133-5 0  9996
2 39077  51.9793 165.6778 0000411 154.8161 205.2725 12.62268094486296
GLOBALSTAR M087 [+]     
1 52888U 22064A   23238.12908631 -.00000110  00000+0  35138-4 0  9999
2 52888  51.9753 160.7026 0009492 336.4980  23.5486 13.37551184 57909
